STARLINK-31037          
1 58536U 23192F   26068.28350650 -.00000282  00000+0  25935-5 0  9996
2 58536  53.1608  64.6159 0001253  93.7826 266.3319 15.30193361125920
FLOCK 4BE-27            
1 60513U 24149AX  26068.75339182  .00011439  00000+0  36576-3 0  9992
2 60513  97.3862 150.6783 0002732 305.8980  54.2008 15.32593322 86906
